{
  "type": "FeatureCollection",
  "features": [
    {
      "type": "Feature",
      "properties": {
        "norad_id": 28890,
        "name": "BEIJING 1",
        "group": "dmc",
        "lat": -80.94305765657067,
        "lon": 170.70513317284554,
        "alt_km": 692.2606485206179,
        "timestamp": "2025-12-03T10:52:57.116530+00:00",
        "meta_object_name": "BEIJING 1",
        "meta_object_id": "2005-043A",
        "meta_epoch": "2025-12-03T04:42:47.207808",
        "meta_mean_motion": 14.63350951,
        "meta_eccentricity": 0.0014828,
        "meta_inclination": 98.265,
        "meta_ra_of_asc_node": 104.6811,
        "meta_arg_of_pericenter": 170.3714,
        "meta_mean_anomaly": 189.7774,
        "meta_ephemeris_type": 0,
        "meta_classification_type": "U",
        "meta_norad_cat_id": 28890,
        "meta_element_set_no": 999,
        "meta_rev_at_epoch": 7198,
        "meta_bstar": 0.000123,
        "meta_mean_motion_dot": 5.87e-06,
        "meta_mean_motion_ddot": 0,
        "tle_line1": "1 28890U 05043A   25337.19637972  .00000587  00000+0  12300-3 0  9991",
        "tle_line2": "2 28890  98.2650 104.6811 0014828 170.3714 189.7774 14.63350951 71981"
      },
      "geometry": {
        "type": "Point",
        "coordinates": [
          170.70513317284554,
          -80.94305765657067
        ]
      }
    },
    {
      "type": "Feature",
      "properties": {
        "norad_id": 33320,
        "name": "HUANJING 1A (HJ-1A)",
        "group": "dmc",
        "lat": -6.944161071177656,
        "lon": -32.92120575523471,
        "alt_km": 617.700856852377,
        "timestamp": "2025-12-03T10:52:57.116555+00:00",
        "meta_object_name": "HUANJING 1A (HJ-1A)",
        "meta_object_id": "2008-041A",
        "meta_epoch": "2025-12-03T04:26:17.359296",
        "meta_mean_motion": 14.83344196,
        "meta_eccentricity": 0.0020656,
        "meta_inclination": 97.6535,
        "meta_ra_of_asc_node": 325.8831,
        "meta_arg_of_pericenter": 63.9745,
        "meta_mean_anomaly": 296.3594,
        "meta_ephemeris_type": 0,
        "meta_classification_type": "U",
        "meta_norad_cat_id": 33320,
        "meta_element_set_no": 999,
        "meta_rev_at_epoch": 92934,
        "meta_bstar": 0.00024935,
        "meta_mean_motion_dot": 2e-05,
        "meta_mean_motion_ddot": 0,
        "tle_line1": "1 33320U 08041A   25337.18492314  .00002000  00000+0  24935-3 0  9993",
        "tle_line2": "2 33320  97.6535 325.8831 0020656  63.9745 296.3594 14.83344196929349"
      },
      "geometry": {
        "type": "Point",
        "coordinates": [
          -32.92120575523471,
          -6.944161071177656
        ]
      }
    },
    {
      "type": "Feature",
      "properties": {
        "norad_id": 33321,
        "name": "HUANJING 1B (HJ-1B)",
        "group": "dmc",
        "lat": -53.17509132172645,
        "lon": 139.53511996798062,
        "alt_km": 644.2084856576739,
        "timestamp": "2025-12-03T10:52:57.116569+00:00",
        "meta_object_name": "HUANJING 1B (HJ-1B)",
        "meta_object_id": "2008-041B",
        "meta_epoch": "2025-12-03T04:58:33.624768",
        "meta_mean_motion": 14.82780387,
        "meta_eccentricity": 0.0038154,
        "meta_inclination": 97.6396,
        "meta_ra_of_asc_node": 329.6264,
        "meta_arg_of_pericenter": 105.8928,
        "meta_mean_anomaly": 254.6497,
        "meta_ephemeris_type": 0,
        "meta_classification_type": "U",
        "meta_norad_cat_id": 33321,
        "meta_element_set_no": 999,
        "meta_rev_at_epoch": 92936,
        "meta_bstar": 0.0001995,
        "meta_mean_motion_dot": 1.582e-05,
        "meta_mean_motion_ddot": 0,
        "tle_line1": "1 33321U 08041B   25337.20733362  .00001582  00000+0  19950-3 0  9993",
        "tle_line2": "2 33321  97.6396 329.6264 0038154 105.8928 254.6497 14.82780387929364"
      },
      "geometry": {
        "type": "Point",
        "coordinates": [
          139.53511996798062,
          -53.17509132172645
        ]
      }
    },
    {
      "type": "Feature",
      "properties": {
        "norad_id": 33446,
        "name": "YAOGAN-4",
        "group": "dmc",
        "lat": 29.88640049453466,
        "lon": 92.2314640762078,
        "alt_km": 628.7352735326958,
        "timestamp": "2025-12-03T10:52:57.116582+00:00",
        "meta_object_name": "YAOGAN-4",
        "meta_object_id": "2008-061A",
        "meta_epoch": "2025-12-02T19:37:56.076096",
        "meta_mean_motion": 14.82631045,
        "meta_eccentricity": 0.0014458,
        "meta_inclination": 97.9168,
        "meta_ra_of_asc_node": 267.0155,
        "meta_arg_of_pericenter": 356.4345,
        "meta_mean_anomaly": 3.6763,
        "meta_ephemeris_type": 0,
        "meta_classification_type": "U",
        "meta_norad_cat_id": 33446,
        "meta_element_set_no": 999,
        "meta_rev_at_epoch": 91656,
        "meta_bstar": 0.00026598,
        "meta_mean_motion_dot": 2.092e-05,
        "meta_mean_motion_ddot": 0,
        "tle_line1": "1 33446U 08061A   25336.81801014  .00002092  00000+0  26598-3 0  9992",
        "tle_line2": "2 33446  97.9168 267.0155 0014458 356.4345   3.6763 14.82631045916566"
      },
      "geometry": {
        "type": "Point",
        "coordinates": [
          92.2314640762078,
          29.88640049453466
        ]
      }
    },
    {
      "type": "Feature",
      "properties": {
        "norad_id": 35681,
        "name": "DEIMOS-1",
        "group": "dmc",
        "lat": 2.574992709778394,
        "lon": -41.16124347627573,
        "alt_km": 647.7534035344643,
        "timestamp": "2025-12-03T10:52:57.116594+00:00",
        "meta_object_name": "DEIMOS-1",
        "meta_object_id": "2009-041A",
        "meta_epoch": "2025-12-03T05:11:49.157952",
        "meta_mean_motion": 14.74928273,
        "meta_eccentricity": 0.0002676,
        "meta_inclination": 97.7146,
        "meta_ra_of_asc_node": 138.2637,
        "meta_arg_of_pericenter": 97.2642,
        "meta_mean_anomaly": 262.8872,
        "meta_ephemeris_type": 0,
        "meta_classification_type": "U",
        "meta_norad_cat_id": 35681,
        "meta_element_set_no": 999,
        "meta_rev_at_epoch": 87799,
        "meta_bstar": 0.00015362,
        "meta_mean_motion_dot": 9.84e-06,
        "meta_mean_motion_ddot": 0,
        "tle_line1": "1 35681U 09041A   25337.21654118  .00000984  00000+0  15362-3 0  9995",
        "tle_line2": "2 35681  97.7146 138.2637 0002676  97.2642 262.8872 14.74928273877992"
      },
      "geometry": {
        "type": "Point",
        "coordinates": [
          -41.16124347627573,
          2.574992709778394
        ]
      }
    },
    {
      "type": "Feature",
      "properties": {
        "norad_id": 35683,
        "name": "UK-DMC 2",
        "group": "dmc",
        "lat": 9.744151824348112,
        "lon": -66.02254789231911,
        "alt_km": 644.6095073753331,
        "timestamp": "2025-12-03T10:52:57.116604+00:00",
        "meta_object_name": "UK-DMC 2",
        "meta_object_id": "2009-041C",
        "meta_epoch": "2025-12-03T05:13:55.555968",
        "meta_mean_motion": 14.75586686,
        "meta_eccentricity": 0.0001285,
        "meta_inclination": 97.8556,
        "meta_ra_of_asc_node": 112.3902,
        "meta_arg_of_pericenter": 102.8417,
        "meta_mean_anomaly": 257.2936,
        "meta_ephemeris_type": 0,
        "meta_classification_type": "U",
        "meta_norad_cat_id": 35683,
        "meta_element_set_no": 999,
        "meta_rev_at_epoch": 87766,
        "meta_bstar": 0.00021626,
        "meta_mean_motion_dot": 1.426e-05,
        "meta_mean_motion_ddot": 0,
        "tle_line1": "1 35683U 09041C   25337.21800412  .00001426  00000+0  21626-3 0  9999",
        "tle_line2": "2 35683  97.8556 112.3902 0001285 102.8417 257.2936 14.75586686877668"
      },
      "geometry": {
        "type": "Point",
        "coordinates": [
          -66.02254789231911,
          9.744151824348112
        ]
      }
    },
    {
      "type": "Feature",
      "properties": {
        "norad_id": 40715,
        "name": "DMC3-FM1",
        "group": "dmc",
        "lat": -69.78770174860392,
        "lon": 3.5125391316084116,
        "alt_km": 620.4183567528598,
        "timestamp": "2025-12-03T10:52:57.116615+00:00",
        "meta_object_name": "DMC3-FM1",
        "meta_object_id": "2015-032A",
        "meta_epoch": "2025-12-03T03:17:16.242720",
        "meta_mean_motion": 14.85412547,
        "meta_eccentricity": 0.0005349,
        "meta_inclination": 97.67,
        "meta_ra_of_asc_node": 204.6789,
        "meta_arg_of_pericenter": 355.2469,
        "meta_mean_anomaly": 4.8695,
        "meta_ephemeris_type": 0,
        "meta_classification_type": "U",
        "meta_norad_cat_id": 40715,
        "meta_element_set_no": 999,
        "meta_rev_at_epoch": 56080,
        "meta_bstar": 0.00013955,
        "meta_mean_motion_dot": 1.151e-05,
        "meta_mean_motion_ddot": 0,
        "tle_line1": "1 40715U 15032A   25337.13699355  .00001151  00000+0  13955-3 0  9992",
        "tle_line2": "2 40715  97.6700 204.6789 0005349 355.2469   4.8695 14.85412547560801"
      },
      "geometry": {
        "type": "Point",
        "coordinates": [
          3.5125391316084116,
          -69.78770174860392
        ]
      }
    },
    {
      "type": "Feature",
      "properties": {
        "norad_id": 40716,
        "name": "DMC3-FM2",
        "group": "dmc",
        "lat": 48.305151810941844,
        "lon": 35.12880513715001,
        "alt_km": 610.8253164744538,
        "timestamp": "2025-12-03T10:52:57.116626+00:00",
        "meta_object_name": "DMC3-FM2",
        "meta_object_id": "2015-032B",
        "meta_epoch": "2025-12-03T03:49:40.855296",
        "meta_mean_motion": 14.85413803,
        "meta_eccentricity": 0.0005999,
        "meta_inclination": 97.6757,
        "meta_ra_of_asc_node": 206.1376,
        "meta_arg_of_pericenter": 359.2804,
        "meta_mean_anomaly": 0.8402,
        "meta_ephemeris_type": 0,
        "meta_classification_type": "U",
        "meta_norad_cat_id": 40716,
        "meta_element_set_no": 999,
        "meta_rev_at_epoch": 56080,
        "meta_bstar": 0.00014035,
        "meta_mean_motion_dot": 1.158e-05,
        "meta_mean_motion_ddot": 0,
        "tle_line1": "1 40716U 15032B   25337.15950064  .00001158  00000+0  14035-3 0  9999",
        "tle_line2": "2 40716  97.6757 206.1376 0005999 359.2804   0.8402 14.85413803560809"
      },
      "geometry": {
        "type": "Point",
        "coordinates": [
          35.12880513715001,
          48.305151810941844
        ]
      }
    },
    {
      "type": "Feature",
      "properties": {
        "norad_id": 40717,
        "name": "DMC3-FM3",
        "group": "dmc",
        "lat": 15.486436711117738,
        "lon": -154.09513641309013,
        "alt_km": 609.5033593705184,
        "timestamp": "2025-12-03T10:52:57.116636+00:00",
        "meta_object_name": "DMC3-FM3",
        "meta_object_id": "2015-032C",
        "meta_epoch": "2025-12-03T04:20:44.164608",
        "meta_mean_motion": 14.85407654,
        "meta_eccentricity": 0.0005358,
        "meta_inclination": 97.6811,
        "meta_ra_of_asc_node": 207.7851,
        "meta_arg_of_pericenter": 1.4256,
        "meta_mean_anomaly": 358.6974,
        "meta_ephemeris_type": 0,
        "meta_classification_type": "U",
        "meta_norad_cat_id": 40717,
        "meta_element_set_no": 999,
        "meta_rev_at_epoch": 56081,
        "meta_bstar": 0.00011404,
        "meta_mean_motion_dot": 9.31e-06,
        "meta_mean_motion_ddot": 0,
        "tle_line1": "1 40717U 15032C   25337.18106672  .00000931  00000+0  11404-3 0  9996",
        "tle_line2": "2 40717  97.6811 207.7851 0005358   1.4256 358.6974 14.85407654560818"
      },
      "geometry": {
        "type": "Point",
        "coordinates": [
          -154.09513641309013,
          15.486436711117738
        ]
      }
    }
  ]
}